OPTICUBE 04             
1 41851U 16067D   18212.18220344  .00000216  00000-0  24193-4 0  9999
2 41851  97.9234 300.8664 0009263  27.6898 332.4815 14.96684207 93670
AEROCUBE 8D             
1 41852U 16067E   18212.22404478 -.00000358  00000-0 -26124-4 0  9992
2 41852  97.9253 300.7484 0010276  26.1365 334.0372 14.96522144 93666
AEROCUBE 8C             
1 41853U 16067F   18211.70434516 -.00000021  00000-0  35023-5 0  9996
2 41853  97.9247 300.1820 0010472  28.4549 331.7241 14.96482493 93587
PROMETHEUS 2-1          
1 41854U 16067G   18212.17559298  .00000224  00000-0  25013-4 0  9995
2 41854  97.9251 300.6790 0010669  26.8383 333.3388 14.96599416 93652
PROMETHEUS 2-3          
1 41855U 16067H   18212.17828498  .00000300  00000-0  31626-4 0  9999
2 41855  97.9254 300.6871 0010833  27.3302 332.8487 14.96597554 93651
ITF-2                   
1 41932U 98067KU  18211.75403109  .00030815  00000-0  17187-3 0  9995
2 41932  51.6310 115.8433 0003128  42.2611 317.8631 15.79130522 87641
WASEDA-SAT3             
1 41933U 98067KV  18212.07411824  .00072030  00000-0  24935-3 0  9999
2 41933  51.6321 104.2834 0001621  70.6583 289.4597 15.88816436 87820
AOBA-VELOX 3            
1 41935U 98067KX  18212.14343163  .00056819  00000-0  24146-3 0  9990
2 41935  51.6341 107.8722 0002462  55.1989 304.9246 15.84709135 87884
INS-1B                  
1 41954U 17008G   18212.14193179  .00000850  00000-0  39016-4 0  9994
2 41954  97.4430 275.7337 0009096 188.9250 171.1826 15.23113954 80696
BGUSAT                  
1 41999U 17008BD  18212.13403363  .00001375  00000-0  58405-4 0  9997
2 41999  97.4477 276.9179 0007670 205.4764 154.6096 15.24758501 80121
DIDO-2                  
1 42000U 17008BE  18211.15895442  .00000618  00000-0  29048-4 0  9995
2 42000  97.4449 275.2122 0007701 211.8910 148.1862 15.23276063 79947
PEASSS                  
1 42015U 17008BV  18212.16477246  .00000730  00000-0  32998-4 0  9994
2 42015  97.4446 276.7195 0005546 212.1944 147.8955 15.24103636 80613
AL-FARABI 1             
1 42016U 17008BW  18211.22622397  .00000979  00000-0  42712-4 0  9990
2 42016  97.4456 276.0173 0005365 215.7428 144.3451 15.24539546 80604
NAYIF-1 (EO-88)         
1 42017U 17008BX  18211.74486315  .00000994  00000-0  43264-4 0  9996
2 42017  97.4453 276.5398 0005394 213.8778 146.2115 15.24565604 80708
HAVELSAT                
1 42700U 98067LH  18212.19263076  .00028831  00000-0  20664-3 0  9994
2 42700  51.6342 129.3427 0004563  68.1482 292.0002 15.73434342 68949
CXBN-2                  
1 42704U 98067LM  18212.16290466  .00023512  00000-0  17273-3 0  9991
2 42704  51.6351 130.6673 0001809  34.9670 325.1447 15.72988864 68843
ICECUBE                 
1 42705U 98067LN  18212.14625926  .00086315  00000-0  35341-3 0  9999
2 42705  51.6451 119.3733 0001825  65.4931 294.6263 15.85323479 69052
PHOENIX                 
1 42706U 98067LP  18212.15346164  .00016190  00000-0  13204-3 0  9993
2 42706  51.6356 132.1047 0001519  45.8414 314.2708 15.70786660 68811
X-CUBESAT               
1 42707U 98067LQ  18212.15518451  .00027147  00000-0  18864-3 0  9995
2 42707  51.6302 129.0069 0001628  56.6017 303.5138 15.74202535 68841
QBEE50-LTU-OC           
1 42708U 98067LR  18211.93800859  .00024519  00000-0  17857-3 0  9998
2 42708  51.6353 131.3932 0001728  56.5895 303.5269 15.73165722 68757
ALTAIR PATHFINDER       
1 42711U 98067LS  18212.18999541  .00011484  00000-0  11793-3 0  9997
2 42711  51.6358 140.6303 0003469   3.8006 356.3016 15.65436136 68368
SHARC                   
1 42712U 98067LT  18212.18651250  .00019992  00000-0  19645-3 0  9996
2 42712  51.6373 142.1713 0002632  27.3250 332.7883 15.66019071 68581
ZA-AEROSAT              
1 42713U 98067LU  18212.15673928  .00014379  00000-0  12492-3 0  9997
2 42713  51.6348 135.1162 0001905  14.2237 345.8813 15.69361496 68432
LINK                    
1 42714U 98067LV  18212.18559350  .00100761  00000-0  37872-3 0  9993
2 42714  51.6223 118.4912 0001173 106.5951 253.5182 15.87025996 68769
CSUNSAT 1               
1 42715U 98067LW  18212.15638031  .00017716  00000-0  14770-3 0  9994
2 42715  51.6352 134.3853 0003126   2.8059 357.2955 15.70172922 68440
SPACECUBE               
1 42717U 98067LY  18212.15809237  .00023855  00000-0  17488-3 0  9994
2 42717  51.6321 130.5762 0003475  68.0357 292.1011 15.73025284 67863
HOOPOE                  
1 42718U 98067LZ  18212.16873993  .00034605  00000-0  21632-3 0  9997
2 42718  51.6295 126.8844 0003174  69.0660 291.0679 15.76502049 67913
CHALLENGER              
1 42721U 98067MA  18212.15917094  .00402157  85803-4  56051-3 0  9993
2 42721  51.6218 109.9372 0003554 220.1506 139.9244 16.05332649 67830
NJUST-1                 
1 42722U 98067MB  18212.18166367  .00016424  00000-0  14789-3 0  9998
2 42722  51.6354 136.8114 0005663  46.3867 313.7599 15.68345159 67480
UNSW-ECO                
1 42723U 98067MC  18212.14437058  .00037057  00000-0  22038-3 0  9994
2 42723  51.6387 126.7779 0004831  61.3698 298.7788 15.77588953 67592
LILACSAT-1              
1 42725U 98067ME  18212.21087106  .00024442  00000-0  19230-3 0  9993
2 42725  51.6357 133.2410 0004687  52.4382 307.7041 15.71325708 67433
NSIGHT-1                
1 42726U 98067MF  18212.20673723  .00006440  00000-0  77777-4 0  9998
2 42726  51.6387 145.3154 0005683  44.6216 315.5235 15.62153671 67285
SNUSAT-1                
1 42727U 98067MG  18212.15985309  .00020197  00000-0  15998-3 0  9990
2 42727  51.6334 133.5862 0005389  17.9493 342.1694 15.71293697 67396
I-INSPIRE II            
1 42731U 98067ML  18212.11987151  .00044336  00000-0  25445-3 0  9997
2 42731  51.6356 125.7731 0003485  13.9681 346.1416 15.78309433 67381
POLYITAN-2-SAU          
1 42732U 98067MM  18212.16657330  .00029446  00000-0  20611-3 0  9991
2 42732  51.6342 129.8846 0004507  10.1363 349.9726 15.73976094 67339
SNUSAT-1B               
1 42733U 98067MN  18212.17306785  .00023723  00000-0  18033-3 0  9995
2 42733  51.6345 132.2050 0004770  10.3610 349.7485 15.72166189 67309
EXALTA-1                
1 42734U 98067MP  18212.14162756  .00042548  00000-0  23305-3 0  9995
2 42734  51.6283 125.0994 0005130  43.5337 316.6068 15.79357767 67348
BEEAGLESAT              
1 42736U 98067MR  18212.14925624  .00019405  00000-0  15934-3 0  9993
2 42736  51.6345 134.2990 0005673  45.7875 314.3588 15.70456797 67335
UCLSAT                  
1 42765U 17036A   18212.12947656  .00000747  00000-0  35781-4 0  9991
2 42765  97.3976 271.2649 0010097 284.6684  75.3432 15.21950426 61391
LITUANICASAT-2          
1 42768U 17036D   18211.80504832  .00001292  00000-0  60338-4 0  9995
2 42768  97.3994 270.5266 0013913 273.6736  86.2909 15.21529667 61194
AALTO-1                 
1 42775U 17036L   18211.39361723  .00000489  00000-0  25276-4 0  9996
2 42775  97.3970 269.9534 0012497 273.7780  86.2026 15.20815173 61067
URSA MAIOR              
1 42776U 17036M   18211.70684096  .00000558  00000-0  28309-4 0  9990
2 42776  97.3976 270.3211 0012334 272.7349  87.2475 15.20900585 61119
COMPASS 2               
1 42777U 17036N   18211.73785857  .00001009  00000-0  47397-4 0  9991
2 42777  97.3999 270.8116 0011181 276.0227  83.9734 15.21861364 61130
DIAMOND RED             
1 42783U 17036U   18212.13994621  .00000628  00000-0  30919-4 0  9992
2 42783  97.3976 271.1059 0010700 284.5608  75.4441 15.21543980 61193
PEGASUS                 
1 42784U 17036V   18212.10670914  .00000716  00000-0  34630-4 0  9998
2 42784  97.3979 271.1576 0010633 284.6315  75.3742 15.21756122 61199
DIAMOND GREEN           
1 42785U 17036W   18211.61264221  .00000646  00000-0  31745-4 0  9990
2 42785  97.3980 270.6020 0010621 287.4213  72.5861 15.21546146 61100
DIAMOND BLUE            
1 42786U 17036X   18212.13792208  .00000633  00000-0  31162-4 0  9999
2 42786  97.3979 271.1183 0010448 285.6924  74.3159 15.21545813 61189
NUDTSAT                 
1 42787U 17036Y   18212.20498876  .00001195  00000-0  54770-4 0  9996
2 42787  97.3987 271.4992 0010141 283.5594  76.4512 15.22373557 61068
SUCHAI                  
1 42788U 17036Z   18211.39854889  .00000870  00000-0  41058-4 0  9990
2 42788  97.3982 270.5782 0010249 287.3933  72.6182 15.22039195 61168
SKCUBE                  
1 42789U 17036AA  18210.87317365  .00000799  00000-0  38008-4 0  9997
2 42789  97.3980 270.0522 0010105 289.5335  70.4810 15.21993923 61009
VZLUSAT-1               
1 42790U 17036AB  18210.61624954  .00001025  00000-0  47388-4 0  9990
2 42790  97.3986 269.9426 0009742 290.6898  69.3294 15.22386835 60976
ROBUSTA-1B              
1 42792U 17036AD  18212.15257403  .00000836  00000-0  39470-4 0  9996
2 42792  97.3977 271.3820 0009656 285.5795  74.4375 15.22143739 61215
CICERO 6                
1 42793U 17036AE  18212.15189970  .00000595  00000-0  29136-4 0  9990
2 42793  97.3969 271.3617 0008854 287.4289  72.5979 15.21954859 61287
D-SAT                   
1 42794U 17036AF  18212.13907441  .00000126  00000-0  16319-4 0  9999
2 42794  97.5879 265.1284 0128210 135.5214 225.6386 14.90897990 60279
TOKI                    
1 42820U 98067MU  18212.18122428  .00020321  00000-0  17325-3 0  9997
2 42820  51.6344 136.7741 0002196 359.8988   0.2009 15.69521721 60767
MAZAALAI (NUMSAT-1)     
1 42822U 98067MW  18211.84120171  .00017599  00000-0  15287-3 0  9992
2 42822  51.6347 139.0110 0002287   4.6890 355.4128 15.69179452 60684
BRAC ONNESHA            
1 42823U 98067MX  18211.19744215  .00018445  00000-0  15927-3 0  9994
2 42823  51.6353 142.2323 0004721   7.9933 352.1139 15.69279830 60589
NIGERIAEDUSAT-1         
1 42824U 98067MY  18211.80095893  .00018264  00000-0  15919-3 0  9994
2 42824  51.6359 139.5316 0004680  11.0126 349.0973 15.69058739 60664
CORVUS BC2              
1 42846U 17042X   18211.67001582  .00000262  00000-0  31307-4 0  9998
2 42846  97.5930 112.9659 0010990  56.6672 303.5597 14.91837422 56850
